GOES 1 (SMS-C) [-]      
1 08366U 75100A   22226.31281525 -.00000244  00000+0  00000+0 0  9996
2 08366   8.1403 294.9989 0002601 236.7841 182.9181  1.00275145171005
GOES 2 [-]              
1 10061U 77048A   22226.43092316  .00000056  00000+0  00000+0 0  9995
2 10061   9.7219 306.4729 0010244  28.5044  23.6395  0.99394516 32338
GOES 3 [-]              
1 10953U 78062A   22226.53675110 -.00000095  00000+0  00000+0 0  9996
2 10953  10.0523 310.9957 0003582 161.2728 137.4772  0.99357629114591
GOES 4 [-]              
1 11964U 80074A   22225.57426676 -.00000318  00000+0  00000+0 0  9997
2 11964  11.0162 314.8289 0032365  77.8200 274.0247  0.99232964113502
GOES 5 [-]              
1 12472U 81049A   22226.31535441 -.00000280  00000+0  00000+0 0  9997
2 12472  11.8597 326.2043 0002479 169.4038 226.0350  1.00312034108788
GOES 6 [-]              
1 14050U 83041A   22226.31386172 -.00000271  00000+0  00000+0 0  9990
2 14050  12.4214 331.5135 0005322 149.6242 237.5340  1.00292452201953
GOES 7 [-]              
1 17561U 87022A   22226.55970552 -.00000143  00000+0  00000+0 0  9998
2 17561  14.1929 348.0679 0005626  79.1122 266.1152  0.99910285112949
GOES 8 [-]              
1 23051U 94022A   22226.53106207  .00000011  00000+0  00000+0 0  9996
2 23051  13.2249  23.7749 0006624  54.3604 152.3678  0.98902642110257
GOES 9 [-]              
1 23581U 95025A   22225.26438410 -.00000254  00000+0  00000+0 0  9991
2 23581  12.7172  24.1241 0008989 103.7353 255.7274  0.98801827 98889
GOES 10 [-]             
1 24786U 97019A   22225.52340782  .00000049  00000+0  00000+0 0  9998
2 24786  11.4827  30.3065 0026188 197.4647 347.1460  0.99120475 92151
GOES 11 [-]             
1 26352U 00022A   22226.49176374 -.00000050  00000+0  00000+0 0  9991
2 26352   8.8029  58.8558 0002248  91.8663 259.0156  0.99040611 38576
GOES 12 [-]             
1 26871U 01031A   22226.33514142 -.00000030  00000+0  00000+0 0  9998
2 26871   9.6181  47.7970 0004917 343.3125 255.5846  0.99138313 76855
EWS-G1 (GOES 13) [+]    
1 29155U 06018A   22225.70253854  .00000019  00000+0  00000+0 0  9992
2 29155   0.7350  96.5694 0005444  96.1370  83.6421  1.00274082 29303
GOES 14 [B]             
1 35491U 09033A   22226.51808375 -.00000109  00000+0  00000+0 0  9997
2 35491   0.4513  94.4602 0014626 117.1636 193.2369  1.00272002 48049
GOES 15 [B]             
1 36411U 10008A   22226.56253561  .00000037  00000+0  00000+0 0  9999
2 36411   0.4364 276.2785 0004773 242.5393 238.5649  1.00271528 45608
GOES 16 [+]             
1 41866U 16071A   22226.16017531 -.00000266  00000+0  00000+0 0  9991
2 41866   0.0584 267.6624 0000652 273.3799 123.9664  1.00270547 21044
GOES 17 [+]             
1 43226U 18022A   22226.55087090  .00000081  00000+0  00000+0 0  9995
2 43226   0.0951 271.0816 0000415 228.9234 243.9212  1.00271912 16350
GOES 18 [+]             
1 51850U 22021A   22225.62393980  .00000078  00000+0  00000+0 0  9992
2 51850   0.0372  88.9225 0002777 117.4370 203.2897  1.00271839  1703
